CYGNUS NG-23            
1 65616U 25208A   25356.66579354  .00012110  00000+0  22188-3 0  9995
2 65616  51.6326  93.3232 0003154 286.8846  73.1797 15.49732869   228
DRAGONFLY               
1 65729U 98067XH  25356.64556854  .00190650  00000+0  12172-2 0  9998
2 65729  51.6244  84.9151 0007785 337.8608  22.2054 15.75220895 14726
1998-067XK              
1 65731U 98067XK  25356.49366199  .00110692  00000+0  98825-3 0  9993
2 65731  51.6296  87.6784 0004876 307.2802  52.7749 15.67550975 14672
GHS-01                  
1 65733U 98067XM  25356.70258129  .00257457  00000+0  13662-2 0  9998
2 65733  51.6291  83.8081 0008821 342.1592  17.9098 15.79178849 14753
YOTSUBA-KULOVER         
1 65941U 98067XN  25356.51317765  .00068061  00000+0  80270-3 0  9991
2 65941  51.6295  90.8089 0002109 341.8055  18.2862 15.60714996 11385
BOTAN                   
1 65942U 98067XP  25356.30350127  .00120580  00000+0  12004-2 0  9992
2 65942  51.6283  90.9078 0003112 318.7343  41.3416 15.64805517 11364
E-KAGAKU-1              
1 65943U 98067XQ  25356.44925386  .00073283  00000+0  86344-3 0  9999
2 65943  51.6319  91.1385 0001296 295.9007  64.1852 15.60710313 11376
HRC MONOBLOCK CAMERA    
1 66052U 98067XR  25356.68002400  .00037432  00000+0  55608-3 0  9995
2 66052  51.6310  91.9195 0002273 231.7536 128.3251 15.54806882 10383
HTV-X1                  
1 66174U 25241A   25356.66579354  .00012110  00000+0  22188-3 0  9992
2 66174  51.6326  93.3232 0003154 286.8846  73.1797 15.49732869   510
SZ-21 MODULE            
1 66515U 25246C   25356.25315771  .00029176  00000+0  31521-3 0  9993
2 66515  41.4776 317.9924 0005209 311.1717  48.8673 15.62957896  5937
SHENZHOU-22             
1 66645U 25272A   25356.83365482  .00016458  00000+0  20454-3 0  9996
2 66645  41.4686 315.4090 0007898 119.6774 240.4851 15.59577421265505
