CCSDS_OMM_VERS = 2.0
CREATION_DATE  = 
ORIGINATOR     = 

OBJECT_NAME    = CYGNUS NG-23
OBJECT_ID      = 2025-208A
CENTER_NAME    = EARTH
REF_FRAME      = TEME
TIME_SYSTEM    = UTC
MEAN_ELEMENT_THEORY = SGP/SGP4

EPOCH          = 2025-12-22T15:58:44.561856
MEAN_MOTION    = 15.49732869
ECCENTRICITY   = .00031542
INCLINATION    = 51.6326
RA_OF_ASC_NODE = 93.3232
ARG_OF_PERICENTER = 286.8846
MEAN_ANOMALY   = 73.1797

EPHEMERIS_TYPE = 0
CLASSIFICATION_TYPE = U
NORAD_CAT_ID   = 65616
ELEMENT_SET_NO = 999
REV_AT_EPOCH   = 22
BSTAR          = .22188304E-3
MEAN_MOTION_DOT = .1211E-3
MEAN_MOTION_DDOT = 0

CCSDS_OMM_VERS = 2.0
CREATION_DATE  = 
ORIGINATOR     = 

OBJECT_NAME    = DRAGONFLY
OBJECT_ID      = 1998-067XH
CENTER_NAME    = EARTH
REF_FRAME      = TEME
TIME_SYSTEM    = UTC
MEAN_ELEMENT_THEORY = SGP/SGP4

EPOCH          = 2025-12-22T15:29:37.121856
MEAN_MOTION    = 15.75220895
ECCENTRICITY   = .00077856
INCLINATION    = 51.6244
RA_OF_ASC_NODE = 84.9151
ARG_OF_PERICENTER = 337.8608
MEAN_ANOMALY   = 22.2054

EPHEMERIS_TYPE = 0
CLASSIFICATION_TYPE = U
NORAD_CAT_ID   = 65729
ELEMENT_SET_NO = 999
REV_AT_EPOCH   = 1472
BSTAR          = .12171562E-2
MEAN_MOTION_DOT = .19065E-2
MEAN_MOTION_DDOT = 0

CCSDS_OMM_VERS = 2.0
CREATION_DATE  = 
ORIGINATOR     = 

OBJECT_NAME    = 1998-067XK
OBJECT_ID      = 1998-067XK
CENTER_NAME    = EARTH
REF_FRAME      = TEME
TIME_SYSTEM    = UTC
MEAN_ELEMENT_THEORY = SGP/SGP4

EPOCH          = 2025-12-22T11:50:52.395936
MEAN_MOTION    = 15.67550975
ECCENTRICITY   = .00048767
INCLINATION    = 51.6296
RA_OF_ASC_NODE = 87.6784
ARG_OF_PERICENTER = 307.2802
MEAN_ANOMALY   = 52.7749

EPHEMERIS_TYPE = 0
CLASSIFICATION_TYPE = U
NORAD_CAT_ID   = 65731
ELEMENT_SET_NO = 999
REV_AT_EPOCH   = 1467
BSTAR          = .98825287E-3
MEAN_MOTION_DOT = .110692E-2
MEAN_MOTION_DDOT = 0

CCSDS_OMM_VERS = 2.0
CREATION_DATE  = 
ORIGINATOR     = 

OBJECT_NAME    = GHS-01
OBJECT_ID      = 1998-067XM
CENTER_NAME    = EARTH
REF_FRAME      = TEME
TIME_SYSTEM    = UTC
MEAN_ELEMENT_THEORY = SGP/SGP4

EPOCH          = 2025-12-22T16:51:43.023456
MEAN_MOTION    = 15.79178849
ECCENTRICITY   = .00088219
INCLINATION    = 51.6291
RA_OF_ASC_NODE = 83.8081
ARG_OF_PERICENTER = 342.1592
MEAN_ANOMALY   = 17.9098

EPHEMERIS_TYPE = 0
CLASSIFICATION_TYPE = U
NORAD_CAT_ID   = 65733
ELEMENT_SET_NO = 999
REV_AT_EPOCH   = 1475
BSTAR          = .13662085E-2
MEAN_MOTION_DOT = .257457E-2
MEAN_MOTION_DDOT = 0

CCSDS_OMM_VERS = 2.0
CREATION_DATE  = 
ORIGINATOR     = 

OBJECT_NAME    = YOTSUBA-KULOVER
OBJECT_ID      = 1998-067XN
CENTER_NAME    = EARTH
REF_FRAME      = TEME
TIME_SYSTEM    = UTC
MEAN_ELEMENT_THEORY = SGP/SGP4

EPOCH          = 2025-12-22T12:18:58.548960
MEAN_MOTION    = 15.60714996
ECCENTRICITY   = .00021092
INCLINATION    = 51.6295
RA_OF_ASC_NODE = 90.8089
ARG_OF_PERICENTER = 341.8055
MEAN_ANOMALY   = 18.2862

EPHEMERIS_TYPE = 0
CLASSIFICATION_TYPE = U
NORAD_CAT_ID   = 65941
ELEMENT_SET_NO = 999
REV_AT_EPOCH   = 1138
BSTAR          = .80270144E-3
MEAN_MOTION_DOT = .68061E-3
MEAN_MOTION_DDOT = 0

CCSDS_OMM_VERS = 2.0
CREATION_DATE  = 
ORIGINATOR     = 

OBJECT_NAME    = BOTAN
OBJECT_ID      = 1998-067XP
CENTER_NAME    = EARTH
REF_FRAME      = TEME
TIME_SYSTEM    = UTC
MEAN_ELEMENT_THEORY = SGP/SGP4

EPOCH          = 2025-12-22T07:17:02.509728
MEAN_MOTION    = 15.64805517
ECCENTRICITY   = .00031122
INCLINATION    = 51.6283
RA_OF_ASC_NODE = 90.9078
ARG_OF_PERICENTER = 318.7343
MEAN_ANOMALY   = 41.3416

EPHEMERIS_TYPE = 0
CLASSIFICATION_TYPE = U
NORAD_CAT_ID   = 65942
ELEMENT_SET_NO = 999
REV_AT_EPOCH   = 1136
BSTAR          = .12003898E-2
MEAN_MOTION_DOT = .12058E-2
MEAN_MOTION_DDOT = 0

CCSDS_OMM_VERS = 2.0
CREATION_DATE  = 
ORIGINATOR     = 

OBJECT_NAME    = E-KAGAKU-1
OBJECT_ID      = 1998-067XQ
CENTER_NAME    = EARTH
REF_FRAME      = TEME
TIME_SYSTEM    = UTC
MEAN_ELEMENT_THEORY = SGP/SGP4

EPOCH          = 2025-12-22T10:46:55.533504
MEAN_MOTION    = 15.60710313
ECCENTRICITY   = .00012968
INCLINATION    = 51.6319
RA_OF_ASC_NODE = 91.1385
ARG_OF_PERICENTER = 295.9007
MEAN_ANOMALY   = 64.1852

EPHEMERIS_TYPE = 0
CLASSIFICATION_TYPE = U
NORAD_CAT_ID   = 65943
ELEMENT_SET_NO = 999
REV_AT_EPOCH   = 1137
BSTAR          = .86344374E-3
MEAN_MOTION_DOT = .73283E-3
MEAN_MOTION_DDOT = 0

CCSDS_OMM_VERS = 2.0
CREATION_DATE  = 
ORIGINATOR     = 

OBJECT_NAME    = HRC MONOBLOCK CAMERA
OBJECT_ID      = 1998-067XR
CENTER_NAME    = EARTH
REF_FRAME      = TEME
TIME_SYSTEM    = UTC
MEAN_ELEMENT_THEORY = SGP/SGP4

EPOCH          = 2025-12-22T16:19:14.073600
MEAN_MOTION    = 15.54806882
ECCENTRICITY   = .00022738
INCLINATION    = 51.6310
RA_OF_ASC_NODE = 91.9195
ARG_OF_PERICENTER = 231.7536
MEAN_ANOMALY   = 128.3251

EPHEMERIS_TYPE = 0
CLASSIFICATION_TYPE = U
NORAD_CAT_ID   = 66052
ELEMENT_SET_NO = 999
REV_AT_EPOCH   = 1038
BSTAR          = .55608481E-3
MEAN_MOTION_DOT = .37432E-3
MEAN_MOTION_DDOT = 0

CCSDS_OMM_VERS = 2.0
CREATION_DATE  = 
ORIGINATOR     = 

OBJECT_NAME    = HTV-X1
OBJECT_ID      = 2025-241A
CENTER_NAME    = EARTH
REF_FRAME      = TEME
TIME_SYSTEM    = UTC
MEAN_ELEMENT_THEORY = SGP/SGP4

EPOCH          = 2025-12-22T15:58:44.561856
MEAN_MOTION    = 15.49732869
ECCENTRICITY   = .00031542
INCLINATION    = 51.6326
RA_OF_ASC_NODE = 93.3232
ARG_OF_PERICENTER = 286.8846
MEAN_ANOMALY   = 73.1797

EPHEMERIS_TYPE = 0
CLASSIFICATION_TYPE = U
NORAD_CAT_ID   = 66174
ELEMENT_SET_NO = 999
REV_AT_EPOCH   = 51
BSTAR          = .22188304E-3
MEAN_MOTION_DOT = .1211E-3
MEAN_MOTION_DDOT = 0

CCSDS_OMM_VERS = 2.0
CREATION_DATE  = 
ORIGINATOR     = 

OBJECT_NAME    = SZ-21 MODULE
OBJECT_ID      = 2025-246C
CENTER_NAME    = EARTH
REF_FRAME      = TEME
TIME_SYSTEM    = UTC
MEAN_ELEMENT_THEORY = SGP/SGP4

EPOCH          = 2025-12-22T06:04:32.826144
MEAN_MOTION    = 15.62957896
ECCENTRICITY   = .00052091
INCLINATION    = 41.4776
RA_OF_ASC_NODE = 317.9924
ARG_OF_PERICENTER = 311.1717
MEAN_ANOMALY   = 48.8673

EPHEMERIS_TYPE = 0
CLASSIFICATION_TYPE = U
NORAD_CAT_ID   = 66515
ELEMENT_SET_NO = 999
REV_AT_EPOCH   = 593
BSTAR          = .31521047E-3
MEAN_MOTION_DOT = .29176E-3
MEAN_MOTION_DDOT = 0

CCSDS_OMM_VERS = 2.0
CREATION_DATE  = 
ORIGINATOR     = 

OBJECT_NAME    = SHENZHOU-22
OBJECT_ID      = 2025-272A
CENTER_NAME    = EARTH
REF_FRAME      = TEME
TIME_SYSTEM    = UTC
MEAN_ELEMENT_THEORY = SGP/SGP4

EPOCH          = 2025-12-22T20:00:27.776448
MEAN_MOTION    = 15.59577421
ECCENTRICITY   = .00078985
INCLINATION    = 41.4686
RA_OF_ASC_NODE = 315.4090
ARG_OF_PERICENTER = 119.6774
MEAN_ANOMALY   = 240.4851

EPHEMERIS_TYPE = 0
CLASSIFICATION_TYPE = U
NORAD_CAT_ID   = 66645
ELEMENT_SET_NO = 999
REV_AT_EPOCH   = 26550
BSTAR          = .20454E-3
MEAN_MOTION_DOT = .16458E-3
MEAN_MOTION_DDOT = 0

